{
  "type": "FeatureCollection",
  "features": [
    {
      "type": "Feature",
      "properties": {
        "norad_id": 59626,
        "name": "LEGION 2",
        "group": "resource",
        "lat": 51.65745334399837,
        "lon": -117.17636044201471,
        "alt_km": 516.1114002116246,
        "timestamp": "2025-12-04T09:47:37.180628+00:00",
        "meta_object_name": "LEGION 2",
        "meta_object_id": "2024-081B",
        "meta_epoch": "2025-12-03T20:33:45.523296",
        "meta_mean_motion": 15.16350178,
        "meta_eccentricity": 0.00061981,
        "meta_inclination": 97.5233,
        "meta_ra_of_asc_node": 52.6586,
        "meta_arg_of_pericenter": 330.0058,
        "meta_mean_anomaly": 30.0819,
        "meta_ephemeris_type": 0,
        "meta_classification_type": "U",
        "meta_norad_cat_id": 59626,
        "meta_element_set_no": 999,
        "meta_rev_at_epoch": 8793,
        "meta_bstar": 0.00046216578,
        "meta_mean_motion_dot": 8.906e-05,
        "meta_mean_motion_ddot": 0,
        "tle_line1": "1 59626U 24081B   25337.85677689  .00008906  00000+0  46217-3 0  9994",
        "tle_line2": "2 59626  97.5233  52.6586 0006198 330.0058  30.0819 15.16350178 87939"
      },
      "geometry": {
        "type": "Point",
        "coordinates": [
          -117.17636044201471,
          51.65745334399837
        ]
      }
    },
    {
      "type": "Feature",
      "properties": {
        "norad_id": 60182,
        "name": "ALOS-4 (DAICHI-4)",
        "group": "resource",
        "lat": 8.453237125681412,
        "lon": -105.44033805974738,
        "alt_km": 632.6858272968329,
        "timestamp": "2025-12-04T09:47:37.180638+00:00",
        "meta_object_name": "ALOS-4 (DAICHI-4)",
        "meta_object_id": "2024-123A",
        "meta_epoch": "2025-11-30T09:15:12.370176",
        "meta_mean_motion": 14.79468497,
        "meta_eccentricity": 0.000127,
        "meta_inclination": 97.9232,
        "meta_ra_of_asc_node": 69.4089,
        "meta_arg_of_pericenter": 105.4124,
        "meta_mean_anomaly": 254.7228,
        "meta_ephemeris_type": 0,
        "meta_classification_type": "U",
        "meta_norad_cat_id": 60182,
        "meta_element_set_no": 999,
        "meta_rev_at_epoch": 7648,
        "meta_bstar": -8.429942e-06,
        "meta_mean_motion_dot": -1.14e-06,
        "meta_mean_motion_ddot": 0,
        "tle_line1": "1 60182U 24123A   25334.38555984 -.00000114  00000+0 -84299-5 0  9997",
        "tle_line2": "2 60182  97.9232  69.4089 0001270 105.4124 254.7228 14.79468497 76488"
      },
      "geometry": {
        "type": "Point",
        "coordinates": [
          -105.44033805974738,
          8.453237125681412
        ]
      }
    },
    {
      "type": "Feature",
      "properties": {
        "norad_id": 60452,
        "name": "LEGION 3",
        "group": "resource",
        "lat": 36.952443475640564,
        "lon": 125.96442729373769,
        "alt_km": 505.188844361207,
        "timestamp": "2025-12-04T09:47:37.180649+00:00",
        "meta_object_name": "LEGION 3",
        "meta_object_id": "2024-146A",
        "meta_epoch": "2025-12-03T12:41:41.864064",
        "meta_mean_motion": 15.15602426,
        "meta_eccentricity": 0.00137997,
        "meta_inclination": 45.0022,
        "meta_ra_of_asc_node": 359.5047,
        "meta_arg_of_pericenter": 146.3627,
        "meta_mean_anomaly": 213.813,
        "meta_ephemeris_type": 0,
        "meta_classification_type": "U",
        "meta_norad_cat_id": 60452,
        "meta_element_set_no": 999,
        "meta_rev_at_epoch": 7233,
        "meta_bstar": 0.00041994728,
        "meta_mean_motion_dot": 7.872e-05,
        "meta_mean_motion_ddot": 0,
        "tle_line1": "1 60452U 24146A   25337.52895676  .00007872  00000+0  41995-3 0  9996",
        "tle_line2": "2 60452  45.0022 359.5047 0013799 146.3627 213.8130 15.15602426 72338"
      },
      "geometry": {
        "type": "Point",
        "coordinates": [
          125.96442729373769,
          36.952443475640564
        ]
      }
    },
    {
      "type": "Feature",
      "properties": {
        "norad_id": 60453,
        "name": "LEGION 4",
        "group": "resource",
        "lat": 39.164656708681484,
        "lon": -147.97585361615774,
        "alt_km": 518.9107470661193,
        "timestamp": "2025-12-04T09:47:37.180659+00:00",
        "meta_object_name": "LEGION 4",
        "meta_object_id": "2024-146B",
        "meta_epoch": "2025-12-03T19:02:38.971968",
        "meta_mean_motion": 15.15671103,
        "meta_eccentricity": 0.00099253,
        "meta_inclination": 45.0382,
        "meta_ra_of_asc_node": 89.8096,
        "meta_arg_of_pericenter": 264.5426,
        "meta_mean_anomaly": 95.4321,
        "meta_ephemeris_type": 0,
        "meta_classification_type": "U",
        "meta_norad_cat_id": 60453,
        "meta_element_set_no": 999,
        "meta_rev_at_epoch": 7122,
        "meta_bstar": 0.00056693751,
        "meta_mean_motion_dot": 0.00010735,
        "meta_mean_motion_ddot": 0,
        "tle_line1": "1 60453U 24146B   25337.79350662  .00010735  00000+0  56694-3 0  9991",
        "tle_line2": "2 60453  45.0382  89.8096 0009925 264.5426  95.4321 15.15671103 71222"
      },
      "geometry": {
        "type": "Point",
        "coordinates": [
          -147.97585361615774,
          39.164656708681484
        ]
      }
    },
    {
      "type": "Feature",
      "properties": {
        "norad_id": 60989,
        "name": "SENTINEL-2C",
        "group": "resource",
        "lat": -47.22138753107978,
        "lon": 60.37997107862712,
        "alt_km": 796.4412393689036,
        "timestamp": "2025-12-04T09:47:37.180669+00:00",
        "meta_object_name": "SENTINEL-2C",
        "meta_object_id": "2024-157A",
        "meta_epoch": "2025-12-03T17:14:02.854176",
        "meta_mean_motion": 14.30824273,
        "meta_eccentricity": 0.00011415,
        "meta_inclination": 98.5613,
        "meta_ra_of_asc_node": 50.3311,
        "meta_arg_of_pericenter": 101.8522,
        "meta_mean_anomaly": 258.2789,
        "meta_ephemeris_type": 0,
        "meta_classification_type": "U",
        "meta_norad_cat_id": 60989,
        "meta_element_set_no": 999,
        "meta_rev_at_epoch": 6503,
        "meta_bstar": 0.00011011088,
        "meta_mean_motion_dot": 2.45e-06,
        "meta_mean_motion_ddot": 0,
        "tle_line1": "1 60989U 24157A   25337.71808859  .00000245  00000+0  11011-3 0  9994",
        "tle_line2": "2 60989  98.5613  50.3311 0001141 101.8522 258.2789 14.30824273 65034"
      },
      "geometry": {
        "type": "Point",
        "coordinates": [
          60.37997107862712,
          -47.22138753107978
        ]
      }
    },
    {
      "type": "Feature",
      "properties": {
        "norad_id": 61735,
        "name": "IONOSFERA-M 1",
        "group": "resource",
        "lat": 75.85039447136097,
        "lon": 65.92846127798384,
        "alt_km": 808.6309828577259,
        "timestamp": "2025-12-04T09:47:37.180679+00:00",
        "meta_object_name": "IONOSFERA-M 1",
        "meta_object_id": "2024-199A",
        "meta_epoch": "2025-12-03T23:11:34.290240",
        "meta_mean_motion": 14.22710862,
        "meta_eccentricity": 0.00013464,
        "meta_inclination": 98.7409,
        "meta_ra_of_asc_node": 207.8815,
        "meta_arg_of_pericenter": 34.0594,
        "meta_mean_anomaly": 326.067,
        "meta_ephemeris_type": 0,
        "meta_classification_type": "U",
        "meta_norad_cat_id": 61735,
        "meta_element_set_no": 999,
        "meta_rev_at_epoch": 9994,
        "meta_bstar": 7.8886225e-05,
        "meta_mean_motion_dot": 1.32e-06,
        "meta_mean_motion_ddot": 0,
        "tle_line1": "1 61735U 24199A   25337.96636910  .00000132  00000+0  78886-4 0  9993",
        "tle_line2": "2 61735  98.7409 207.8815 0001346  34.0594 326.0670 14.22710862 99949"
      },
      "geometry": {
        "type": "Point",
        "coordinates": [
          65.92846127798384,
          75.85039447136097
        ]
      }
    },
    {
      "type": "Feature",
      "properties": {
        "norad_id": 61736,
        "name": "IONOSFERA-M 2",
        "group": "resource",
        "lat": -73.78753783946894,
        "lon": -119.82214989431124,
        "alt_km": 824.4462332760204,
        "timestamp": "2025-12-04T09:47:37.180689+00:00",
        "meta_object_name": "IONOSFERA-M 2",
        "meta_object_id": "2024-199B",
        "meta_epoch": "2025-12-03T22:20:12.397920",
        "meta_mean_motion": 14.22713154,
        "meta_eccentricity": 0.00014009,
        "meta_inclination": 98.7407,
        "meta_ra_of_asc_node": 207.7587,
        "meta_arg_of_pericenter": 121.028,
        "meta_mean_anomaly": 239.1036,
        "meta_ephemeris_type": 0,
        "meta_classification_type": "U",
        "meta_norad_cat_id": 61736,
        "meta_element_set_no": 999,
        "meta_rev_at_epoch": 10306,
        "meta_bstar": 9.6536127e-05,
        "meta_mean_motion_dot": 1.72e-06,
        "meta_mean_motion_ddot": 0,
        "tle_line1": "1 61736U 24199B   25337.93069905  .00000172  00000+0  96536-4 0  9991",
        "tle_line2": "2 61736  98.7407 207.7587 0001400 121.0280 239.1036 14.22713154103069"
      },
      "geometry": {
        "type": "Point",
        "coordinates": [
          -119.82214989431124,
          -73.78753783946894
        ]
      }
    }
  ]
}